COSMOS 2433 (720)       
1 32275U 07052A   21361.34856251 -.00000023  00000+0  00000+0 0  9994
2 32275  66.0803  10.3825 0005249 251.7775  95.8131  2.13104204110294
COSMOS 2432 (719)       
1 32276U 07052B   21361.40716685 -.00000023  00000+0  00000+0 0  9998
2 32276  66.0951  10.4775 0011014 315.0131  26.2871  2.13103463110296
COSMOS 2434 (721)       
1 32393U 07065A   21361.02496534  .00000039  00000+0  00000+0 0  9994
2 32393  64.4160 247.3179 0003390  69.3786 278.9057  2.13103124108992
COSMOS 2436 (723)       
1 32395U 07065C   21361.22794007  .00000040  00000+0  00000+0 0  9996
2 32395  64.4245 247.3656 0016246   1.2484 278.7337  2.13102865108936
COSMOS 2456 (730)       
1 36111U 09070A   21361.22305347  .00000056  00000+0  00000+0 0  9996
2 36111  64.3137 126.9681 0001732 334.7498 333.4947  2.13099134 93661
COSMOS 2457 (733)       
1 36112U 09070B   21361.36296150  .00000055  00000+0  00000+0 0  9992
2 36112  64.2970 126.8435 0006600 153.0999  28.3997  2.13101332 93679
COSMOS 2461 (735)       
1 36401U 10007B   21361.49597398 -.00000023  00000+0  00000+0 0  9993
2 36401  65.9691   9.2396 0019330 359.4728 318.8107  2.13103702 92025
COSMOS 2460 (732)       
1 36402U 10007C   21361.39007631 -.00000023  00000+0  00000+0 0  9999
2 36402  65.9547   9.1969 0002461 255.6708 288.1410  2.13106433 92023
COSMOS 2464 (736)       
1 37139U 10041C   21361.38795507  .00000042  00000+0  00000+0 0  9990
2 37139  64.0150 246.4668 0029688  11.0420 115.2196  2.13100834 88089
COSMOS 2476 (744)       
1 37867U 11064A   21361.29063999  .00000059  00000+0  00000+0 0  9995
2 37867  64.6054 128.2546 0020133 231.1829  32.9018  2.13101797 79012
COSMOS 2477 (745)       
1 37868U 11064B   21361.02561927  .00000061  00000+0  00000+0 0  9994
2 37868  64.6135 128.3267 0017483 231.3889   7.6098  2.13101610 78960
COSMOS 2475 (743)       
1 37869U 11064C   21361.32947829  .00000059  00000+0  00000+0 0  9994
2 37869  64.6207 128.3230 0021195 253.0338 176.9601  2.13101873 78989
COSMOS 2485 (747)       
1 39155U 13019A   21361.22485515  .00000060  00000+0  00000+0 0  9996
2 39155  64.7702 128.6478 0020623 226.7870  31.2816  2.13101795 67487
COSMOS 2492 (754)       
1 39620U 14012A   21361.28815850 -.00000024  00000+0  00000+0 0  9993
2 39620  65.8427   8.9054 0014432 314.1855  27.0586  2.13103283 60435
COSMOS 2500 (755)       
1 40001U 14032A   21361.30383426 -.00000024  00000+0  00000+0 0  9992
2 40001  65.7831   8.7783 0007887 220.9991 351.3874  2.13102565 58652
COSMOS 2501 (702K)      
1 40315U 14075A   21361.41609509  .00000040  00000+0  00000+0 0  9999
2 40315  63.7244 247.1994 0016697 209.4795 256.2061  2.13101291 55060
COSMOS 2514 (751)       
1 41330U 16008A   21361.45576907 -.00000024  00000+0  00000+0 0  9997
2 41330  65.5836   8.5077 0011929 222.2737 290.1802  2.13102817 45826
COSMOS 2516 (753)       
1 41554U 16032A   21361.30323045  .00000040  00000+0  00000+0 0  9996
2 41554  63.9498 247.4317 0012728 218.5149  76.3115  2.13106182 43428
COSMOS 2522 (752)       
1 42939U 17055A   21361.17932282  .00000038  00000+0  00000+0 0  9991
2 42939  64.1839 247.7806 0006545 250.6859 168.6099  2.13102095 33186
COSMOS 2527 (756)       
1 43508U 18053A   21361.48176748  .00000058  00000+0  00000+0 0  9996
2 43508  64.9340 128.6032 0007298 215.9235 107.5132  2.13102501 27477
COSMOS 2529 (757)       
1 43687U 18086A   21361.36932429  .00000039  00000+0  00000+0 0  9992
2 43687  64.3982 248.0439 0009047 274.7432 245.8443  2.13102154 24499
COSMOS 2534 (758)       
1 44299U 19030A   21361.36501093  .00000039  00000+0  00000+0 0  9991
2 44299  64.4699 247.9126 0012169 294.1421 357.8198  2.13101901 20136
COSMOS 2544 (759)       
1 44850U 19088A   21361.48015752  .00000058  00000+0  00000+0 0  9993
2 44850  64.9189 128.4593 0010516 253.6369 112.1579  2.13102287 15917
COSMOS 2545 (760)       
1 45358U 20018A   21361.19307987 -.00000027  00000+0  00000+0 0  9991
2 45358  64.9189   9.2668 0011498 250.8636 104.4334  2.13102700 13850
COSMOS 2547 (705K)      
1 46805U 20075A   21361.22473634  .00000040  00000+0  00000+0 0  9993
2 46805  64.6929 247.2908 0006363 252.5347 338.9273  2.13102821  9104
